{
"type": "FeatureCollection",
"name": "battery_storage_tx_clean",
"crs": { "type": "name", "properties": { "name": "urn:ogc:def:crs:OGC:1.3:CRS84" } },
"features": [
{ "type": "Feature", "properties": { "Utility Name": "Luminant Generation Company LLC", "Plant Code": 8063, "Plant Name": "DeCordova Steam Electric Station", "County": "Hood", "Generator ID": "BESS", "Technology": "Batteries", "Nameplate Capacity (MW)": 269.1, "Nameplate Energy Capacity (MWh)": "263", "Maximum Charge Rate (MW)": "263", "Maximum Discharge Rate (MW)": "263", "Operating Year": 2022, "Latitude": "32.403056", "Longitude": "-97.700556" }, "geometry": { "type": "Point", "coordinates": [ -97.700556, 32.403056 ] } },
{ "type": "Feature", "properties": { "Utility Name": "Duke Energy Renewables Services", "Plant Code": 56961, "Plant Name": "Notrees Windpower Hybrid", "County": "Ector", "Generator ID": "BATT", "Technology": "Batteries", "Nameplate Capacity (MW)": 36.0, "Nameplate Energy Capacity (MWh)": "13.6", "Maximum Charge Rate (MW)": "36", "Maximum Discharge Rate (MW)": "36", "Operating Year": 2012, "Latitude": "31.995", "Longitude": "-102.828333" }, "geometry": { "type": "Point", "coordinates": [ -102.828333, 31.995 ] } },
{ "type": "Feature", "properties": { "Utility Name": "Big Sky Wind, LLC", "Plant Code": 56981, "Plant Name": "Pyron Wind Farm LLC Hybrid", "County": "Fisher", "Generator ID": "PYRBT", "Technology": "Batteries", "Nameplate Capacity (MW)": 9.9, "Nameplate Energy Capacity (MWh)": "9.9", "Maximum Charge Rate (MW)": "9.9", "Maximum Discharge Rate (MW)": "9.9", "Operating Year": 2018, "Latitude": "32.5886", "Longitude": "-100.6728" }, "geometry": { "type": "Point", "coordinates": [ -100.6728, 32.5886 ] } },
{ "type": "Feature", "properties": { "Utility Name": "Big Sky Wind, LLC", "Plant Code": 56984, "Plant Name": "Inadale Wind Farm LLC Hybrid", "County": "Nolan", "Generator ID": "INABT", "Technology": "Batteries", "Nameplate Capacity (MW)": 9.9, "Nameplate Energy Capacity (MWh)": "9.9", "Maximum Charge Rate (MW)": "9.9", "Maximum Discharge Rate (MW)": "9.9", "Operating Year": 2018, "Latitude": "32.4969", "Longitude": "-100.5797" }, "geometry": { "type": "Point", "coordinates": [ -100.5797, 32.4969 ] } },
{ "type": "Feature", "properties": { "Utility Name": "Cameron Wind 1 LLC", "Plant Code": 59118, "Plant Name": "Cameron Wind 1 LLC", "County": "Cameron", "Generator ID": "SABAL", "Technology": "Batteries", "Nameplate Capacity (MW)": 16.4, "Nameplate Energy Capacity (MWh)": "32.8", "Maximum Charge Rate (MW)": "16.4", "Maximum Discharge Rate (MW)": "16.4", "Operating Year": 2024, "Latitude": "26.195278", "Longitude": "-97.466111" }, "geometry": { "type": "Point", "coordinates": [ -97.466111, 26.195278 ] } },
{ "type": "Feature", "properties": { "Utility Name": "Upton County Solar 2 LLC", "Plant Code": 60123, "Plant Name": "Castle Gap Solar Hybrid", "County": "Upton", "Generator ID": "BAT1", "Technology": "Batteries", "Nameplate Capacity (MW)": 9.9, "Nameplate Energy Capacity (MWh)": "42", "Maximum Charge Rate (MW)": "9.9", "Maximum Discharge Rate (MW)": "9.9", "Operating Year": 2019, "Latitude": "31.255", "Longitude": "-102.272" }, "geometry": { "type": "Point", "coordinates": [ -102.272, 31.255 ] } },
{ "type": "Feature", "properties": { "Utility Name": "Rabbit Hill Energy Storage Project", "Plant Code": 60649, "Plant Name": "Rabbit Hill Energy Storage Project", "County": "Williamson", "Generator ID": "1", "Technology": "Batteries", "Nameplate Capacity (MW)": 9.9, "Nameplate Energy Capacity (MWh)": "9.9", "Maximum Charge Rate (MW)": "9.9", "Maximum Discharge Rate (MW)": "9.9", "Operating Year": 2020, "Latitude": "30.587828", "Longitude": "-97.687023" }, "geometry": { "type": "Point", "coordinates": [ -97.687023, 30.587828 ] } },
{ "type": "Feature", "properties": { "Utility Name": "Blue Summit Storage, LLC", "Plant Code": 60690, "Plant Name": "Blue Summit Storage, LLC", "County": "Wilbarger", "Generator ID": "WBSS", "Technology": "Batteries", "Nameplate Capacity (MW)": 30.0, "Nameplate Energy Capacity (MWh)": "12.6", "Maximum Charge Rate (MW)": "30", "Maximum Discharge Rate (MW)": "30", "Operating Year": 2017, "Latitude": "34.299", "Longitude": "-99.399" }, "geometry": { "type": "Point", "coordinates": [ -99.399, 34.299 ] } },
{ "type": "Feature", "properties": { "Utility Name": "Austin Energy", "Plant Code": 61741, "Plant Name": "Kingsberry Energy Storage System", "County": "Travis", "Generator ID": "KBESS", "Technology": "Batteries", "Nameplate Capacity (MW)": 1.5, "Nameplate Energy Capacity (MWh)": "3", "Maximum Charge Rate (MW)": "1.5", "Maximum Discharge Rate (MW)": "1.5", "Operating Year": 2018, "Latitude": "30.266028", "Longitude": "-97.686139" }, "geometry": { "type": "Point", "coordinates": [ -97.686139, 30.266028 ] } },
{ "type": "Feature", "properties": { "Utility Name": "Roadrunner Solar, LLC", "Plant Code": 62561, "Plant Name": "Roadrunner, LLC Hybrid", "County": "Upton", "Generator ID": "BA", "Technology": "Batteries", "Nameplate Capacity (MW)": 63.3, "Nameplate Energy Capacity (MWh)": "108.6", "Maximum Charge Rate (MW)": "50", "Maximum Discharge Rate (MW)": "50", "Operating Year": 2023, "Latitude": "31.219444", "Longitude": "-102.19222" }, "geometry": { "type": "Point", "coordinates": [ -102.19222, 31.219444 ] } },
{ "type": "Feature", "properties": { "Utility Name": "High Lonesome Wind Power, LLC", "Plant Code": 62562, "Plant Name": "High Lonesome Wind Power, LLC Hybrid", "County": "Upton", "Generator ID": "BA", "Technology": "Batteries", "Nameplate Capacity (MW)": 63.3, "Nameplate Energy Capacity (MWh)": "81", "Maximum Charge Rate (MW)": "51.1", "Maximum Discharge Rate (MW)": "51.1", "Operating Year": 2023, "Latitude": "31.171652", "Longitude": "-101.881147" }, "geometry": { "type": "Point", "coordinates": [ -101.881147, 31.171652 ] } },
{ "type": "Feature", "properties": { "Utility Name": "City of San Antonio - (TX)", "Plant Code": 62609, "Plant Name": "Commerce ESS", "County": "Bexar", "Generator ID": "BA1", "Technology": "Batteries", "Nameplate Capacity (MW)": 10.0, "Nameplate Energy Capacity (MWh)": "10", "Maximum Charge Rate (MW)": "10", "Maximum Discharge Rate (MW)": "10", "Operating Year": 2019, "Latitude": "29.43445", "Longitude": "-98.61765" }, "geometry": { "type": "Point", "coordinates": [ -98.61765, 29.43445 ] } },
{ "type": "Feature", "properties": { "Utility Name": "GlidePath Power Operations LLC", "Plant Code": 62753, "Plant Name": "Prospect Storage", "County": "Brazoria", "Generator ID": "BESS", "Technology": "Batteries", "Nameplate Capacity (MW)": 9.9, "Nameplate Energy Capacity (MWh)": "10", "Maximum Charge Rate (MW)": "9.9", "Maximum Discharge Rate (MW)": "9.9", "Operating Year": 2020, "Latitude": "29.149166", "Longitude": "-95.651111" }, "geometry": { "type": "Point", "coordinates": [ -95.651111, 29.149166 ] } },
{ "type": "Feature", "properties": { "Utility Name": "2W Permian Solar, LLC", "Plant Code": 63255, "Plant Name": "2W Permian Solar Project Hybrid", "County": "Andrews", "Generator ID": "2WPBA", "Technology": "Batteries", "Nameplate Capacity (MW)": 40.0, "Nameplate Energy Capacity (MWh)": "40", "Maximum Charge Rate (MW)": "40", "Maximum Discharge Rate (MW)": "40", "Operating Year": 2021, "Latitude": "32.116388", "Longitude": "-102.528333" }, "geometry": { "type": "Point", "coordinates": [ -102.528333, 32.116388 ] } },
{ "type": "Feature", "properties": { "Utility Name": "Chisholm Grid, LLC", "Plant Code": 63737, "Plant Name": "Chisholm Grid Energy Storage System", "County": "Tarrant", "Generator ID": "CHS01", "Technology": "Batteries", "Nameplate Capacity (MW)": 100.0, "Nameplate Energy Capacity (MWh)": "125", "Maximum Charge Rate (MW)": "100", "Maximum Discharge Rate (MW)": "100", "Operating Year": 2021, "Latitude": "32.904444", "Longitude": "-97.386111" }, "geometry": { "type": "Point", "coordinates": [ -97.386111, 32.904444 ] } },
{ "type": "Feature", "properties": { "Utility Name": "Madero Grid, LLC", "Plant Code": 63757, "Plant Name": "Madero Grid", "County": "Hidalgo", "Generator ID": "MAD01", "Technology": "Batteries", "Nameplate Capacity (MW)": 100.0, "Nameplate Energy Capacity (MWh)": "100", "Maximum Charge Rate (MW)": "100", "Maximum Discharge Rate (MW)": "100", "Operating Year": 2023, "Latitude": "26.169846", "Longitude": "-98.329793" }, "geometry": { "type": "Point", "coordinates": [ -98.329793, 26.169846 ] } },
{ "type": "Feature", "properties": { "Utility Name": "Lily Solar, LLC", "Plant Code": 63892, "Plant Name": "Lily Solar Hybrid", "County": "Kaufman", "Generator ID": "LILYB", "Technology": "Batteries", "Nameplate Capacity (MW)": 55.2, "Nameplate Energy Capacity (MWh)": "80.5", "Maximum Charge Rate (MW)": "50", "Maximum Discharge Rate (MW)": "50", "Operating Year": 2021, "Latitude": "32.533273", "Longitude": "-96.428985" }, "geometry": { "type": "Point", "coordinates": [ -96.428985, 32.533273 ] } },
{ "type": "Feature", "properties": { "Utility Name": "Azure Sky Solar Project, LLC", "Plant Code": 63905, "Plant Name": "Azure Sky Solar", "County": "Haskell", "Generator ID": "ASKYB", "Technology": "Batteries", "Nameplate Capacity (MW)": 91.2, "Nameplate Energy Capacity (MWh)": "80.5", "Maximum Charge Rate (MW)": "51.7", "Maximum Discharge Rate (MW)": "51.7", "Operating Year": 2022, "Latitude": "33.021601", "Longitude": "-99.61463" }, "geometry": { "type": "Point", "coordinates": [ -99.61463, 33.021601 ] } },
{ "type": "Feature", "properties": { "Utility Name": "Ignacio Grid, LLC", "Plant Code": 64089, "Plant Name": "Ignacio Grid Energy Storage System", "County": "Hidalgo", "Generator ID": "IGN01", "Technology": "Batteries", "Nameplate Capacity (MW)": 100.0, "Nameplate Energy Capacity (MWh)": "100", "Maximum Charge Rate (MW)": "100", "Maximum Discharge Rate (MW)": "100", "Operating Year": 2023, "Latitude": "26.166944", "Longitude": "-98.325" }, "geometry": { "type": "Point", "coordinates": [ -98.325, 26.166944 ] } },
{ "type": "Feature", "properties": { "Utility Name": "Azure Sky Wind Project, LLC", "Plant Code": 64164, "Plant Name": "Azure Sky Wind Project, LLC Hybrid", "County": "Throckmorton", "Generator ID": "ASWBE", "Technology": "Batteries", "Nameplate Capacity (MW)": 120.0, "Nameplate Energy Capacity (MWh)": "190", "Maximum Charge Rate (MW)": "121.8", "Maximum Discharge Rate (MW)": "121.8", "Operating Year": 2024, "Latitude": "33.169139", "Longitude": "-99.266006" }, "geometry": { "type": "Point", "coordinates": [ -99.266006, 33.169139 ] } },
{ "type": "Feature", "properties": { "Utility Name": "Engie North America", "Plant Code": 64293, "Plant Name": "Alvin", "County": "Brazoria", "Generator ID": "ALVIN", "Technology": "Batteries", "Nameplate Capacity (MW)": 9.9, "Nameplate Energy Capacity (MWh)": "9.9", "Maximum Charge Rate (MW)": "9.9", "Maximum Discharge Rate (MW)": "9.9", "Operating Year": 2020, "Latitude": "29.433245", "Longitude": "-95.249367" }, "geometry": { "type": "Point", "coordinates": [ -95.249367, 29.433245 ] } },
{ "type": "Feature", "properties": { "Utility Name": "Engie North America", "Plant Code": 64294, "Plant Name": "Odessa", "County": "Ector", "Generator ID": "ODSA", "Technology": "Batteries", "Nameplate Capacity (MW)": 9.9, "Nameplate Energy Capacity (MWh)": "9.9", "Maximum Charge Rate (MW)": "9.9", "Maximum Discharge Rate (MW)": "9.9", "Operating Year": 2020, "Latitude": "31.871315", "Longitude": "-102.398409" }, "geometry": { "type": "Point", "coordinates": [ -102.398409, 31.871315 ] } },
{ "type": "Feature", "properties": { "Utility Name": "Engie North America", "Plant Code": 64295, "Plant Name": "Angleton", "County": "Brazoria", "Generator ID": "ANGLE", "Technology": "Batteries", "Nameplate Capacity (MW)": 9.9, "Nameplate Energy Capacity (MWh)": "9.9", "Maximum Charge Rate (MW)": "9.9", "Maximum Discharge Rate (MW)": "9.9", "Operating Year": 2020, "Latitude": "29.167065", "Longitude": "-95.440647" }, "geometry": { "type": "Point", "coordinates": [ -95.440647, 29.167065 ] } },
{ "type": "Feature", "properties": { "Utility Name": "Engie North America", "Plant Code": 64296, "Plant Name": "Brazoria", "County": "Brazoria", "Generator ID": "BRAZ", "Technology": "Batteries", "Nameplate Capacity (MW)": 9.9, "Nameplate Energy Capacity (MWh)": "9.9", "Maximum Charge Rate (MW)": "9.9", "Maximum Discharge Rate (MW)": "9.9", "Operating Year": 2020, "Latitude": "29.062635", "Longitude": "-95.577587" }, "geometry": { "type": "Point", "coordinates": [ -95.577587, 29.062635 ] } },
{ "type": "Feature", "properties": { "Utility Name": "Engie North America", "Plant Code": 64297, "Plant Name": "Heights", "County": "Galveston", "Generator ID": "H8S", "Technology": "Batteries", "Nameplate Capacity (MW)": 9.9, "Nameplate Energy Capacity (MWh)": "9.9", "Maximum Charge Rate (MW)": "9.9", "Maximum Discharge Rate (MW)": "9.9", "Operating Year": 2020, "Latitude": "29.389595", "Longitude": "-94.949867" }, "geometry": { "type": "Point", "coordinates": [ -94.949867, 29.389595 ] } },
{ "type": "Feature", "properties": { "Utility Name": "Engie North America", "Plant Code": 64298, "Plant Name": "Magnolia TX", "County": "Galveston", "Generator ID": "MANGO", "Technology": "Batteries", "Nameplate Capacity (MW)": 9.9, "Nameplate Energy Capacity (MWh)": "9.9", "Maximum Charge Rate (MW)": "9.9", "Maximum Discharge Rate (MW)": "9.9", "Operating Year": 2020, "Latitude": "29.488335", "Longitude": "-95.133947" }, "geometry": { "type": "Point", "coordinates": [ -95.133947, 29.488335 ] } },
{ "type": "Feature", "properties": { "Utility Name": "Engie North America", "Plant Code": 64312, "Plant Name": "Bat Cave", "County": "Mason", "Generator ID": "BC", "Technology": "Batteries", "Nameplate Capacity (MW)": 100.0, "Nameplate Energy Capacity (MWh)": "110", "Maximum Charge Rate (MW)": "100", "Maximum Discharge Rate (MW)": "100", "Operating Year": 2021, "Latitude": "30.737745", "Longitude": "-99.231778" }, "geometry": { "type": "Point", "coordinates": [ -99.231778, 30.737745 ] } },
{ "type": "Feature", "properties": { "Utility Name": "Engie North America", "Plant Code": 64314, "Plant Name": "Dickinson", "County": "Galveston", "Generator ID": "DIKN", "Technology": "Batteries", "Nameplate Capacity (MW)": 9.9, "Nameplate Energy Capacity (MWh)": "9.9", "Maximum Charge Rate (MW)": "9.9", "Maximum Discharge Rate (MW)": "9.9", "Operating Year": 2021, "Latitude": "29.461255", "Longitude": "-95.056987" }, "geometry": { "type": "Point", "coordinates": [ -95.056987, 29.461255 ] } },
{ "type": "Feature", "properties": { "Utility Name": "Engie North America", "Plant Code": 64315, "Plant Name": "Loop 463", "County": "Victoria", "Generator ID": "LOOP", "Technology": "Batteries", "Nameplate Capacity (MW)": 9.9, "Nameplate Energy Capacity (MWh)": "9.9", "Maximum Charge Rate (MW)": "9.9", "Maximum Discharge Rate (MW)": "9.9", "Operating Year": 2021, "Latitude": "28.816475", "Longitude": "-97.074867" }, "geometry": { "type": "Point", "coordinates": [ -97.074867, 28.816475 ] } },
{ "type": "Feature", "properties": { "Utility Name": "Engie North America", "Plant Code": 64316, "Plant Name": "Lopeno", "County": "Zapata", "Generator ID": "LOPE", "Technology": "Batteries", "Nameplate Capacity (MW)": 9.9, "Nameplate Energy Capacity (MWh)": "9.9", "Maximum Charge Rate (MW)": "9.9", "Maximum Discharge Rate (MW)": "9.9", "Operating Year": 2022, "Latitude": "26.687614", "Longitude": "-99.109418" }, "geometry": { "type": "Point", "coordinates": [ -99.109418, 26.687614 ] } },
{ "type": "Feature", "properties": { "Utility Name": "Engie North America", "Plant Code": 64317, "Plant Name": "North Fork TX", "County": "Williamson", "Generator ID": "NF", "Technology": "Batteries", "Nameplate Capacity (MW)": 100.0, "Nameplate Energy Capacity (MWh)": "110", "Maximum Charge Rate (MW)": "100", "Maximum Discharge Rate (MW)": "100", "Operating Year": 2021, "Latitude": "30.748955", "Longitude": "-97.875708" }, "geometry": { "type": "Point", "coordinates": [ -97.875708, 30.748955 ] } },
{ "type": "Feature", "properties": { "Utility Name": "Engie North America", "Plant Code": 64318, "Plant Name": "Pueblo BA", "County": "Maverick", "Generator ID": "PBL1", "Technology": "Batteries", "Nameplate Capacity (MW)": 9.9, "Nameplate Energy Capacity (MWh)": "9.9", "Maximum Charge Rate (MW)": "9.9", "Maximum Discharge Rate (MW)": "9.9", "Operating Year": 2022, "Latitude": "28.678935", "Longitude": "-100.463708" }, "geometry": { "type": "Point", "coordinates": [ -100.463708, 28.678935 ] } },
{ "type": "Feature", "properties": { "Utility Name": "Engie North America", "Plant Code": 64318, "Plant Name": "Pueblo BA", "County": "Maverick", "Generator ID": "PBL2", "Technology": "Batteries", "Nameplate Capacity (MW)": 9.9, "Nameplate Energy Capacity (MWh)": "9.9", "Maximum Charge Rate (MW)": "9.9", "Maximum Discharge Rate (MW)": "9.9", "Operating Year": 2022, "Latitude": "28.678935", "Longitude": "-100.463708" }, "geometry": { "type": "Point", "coordinates": [ -100.463708, 28.678935 ] } },
{ "type": "Feature", "properties": { "Utility Name": "Engie North America", "Plant Code": 64319, "Plant Name": "Ranchtown", "County": "Bexar", "Generator ID": "RANCH", "Technology": "Batteries", "Nameplate Capacity (MW)": 9.9, "Nameplate Energy Capacity (MWh)": "9.9", "Maximum Charge Rate (MW)": "9.9", "Maximum Discharge Rate (MW)": "9.9", "Operating Year": 2021, "Latitude": "29.617885", "Longitude": "-98.735948" }, "geometry": { "type": "Point", "coordinates": [ -98.735948, 29.617885 ] } },
{ "type": "Feature", "properties": { "Utility Name": "Engie North America", "Plant Code": 64321, "Plant Name": "Sweeny", "County": "Brazoria", "Generator ID": "SWNY", "Technology": "Batteries", "Nameplate Capacity (MW)": 9.9, "Nameplate Energy Capacity (MWh)": "9.9", "Maximum Charge Rate (MW)": "9.9", "Maximum Discharge Rate (MW)": "9.9", "Operating Year": 2021, "Latitude": "29.055615", "Longitude": "-95.687237" }, "geometry": { "type": "Point", "coordinates": [ -95.687237, 29.055615 ] } },
{ "type": "Feature", "properties": { "Utility Name": "Engie North America", "Plant Code": 64322, "Plant Name": "Zapata", "County": "Zapata", "Generator ID": "ZPT1", "Technology": "Batteries", "Nameplate Capacity (MW)": 9.9, "Nameplate Energy Capacity (MWh)": "9.9", "Maximum Charge Rate (MW)": "9.9", "Maximum Discharge Rate (MW)": "9.9", "Operating Year": 2022, "Latitude": "26.932675", "Longitude": "-99.233708" }, "geometry": { "type": "Point", "coordinates": [ -99.233708, 26.932675 ] } },
{ "type": "Feature", "properties": { "Utility Name": "Engie North America", "Plant Code": 64322, "Plant Name": "Zapata", "County": "Zapata", "Generator ID": "ZPT2", "Technology": "Batteries", "Nameplate Capacity (MW)": 9.9, "Nameplate Energy Capacity (MWh)": "9.9", "Maximum Charge Rate (MW)": "9.9", "Maximum Discharge Rate (MW)": "9.9", "Operating Year": 2022, "Latitude": "26.932675", "Longitude": "-99.233708" }, "geometry": { "type": "Point", "coordinates": [ -99.233708, 26.932675 ] } },
{ "type": "Feature", "properties": { "Utility Name": "Key Capture Energy", "Plant Code": 64423, "Plant Name": "TX7 Flat Top", "County": "Reeves", "Generator ID": "TX7", "Technology": "Batteries", "Nameplate Capacity (MW)": 9.9, "Nameplate Energy Capacity (MWh)": "16.5", "Maximum Charge Rate (MW)": "9.9", "Maximum Discharge Rate (MW)": "9.9", "Operating Year": 2020, "Latitude": "31.19791", "Longitude": "-103.36067" }, "geometry": { "type": "Point", "coordinates": [ -103.36067, 31.19791 ] } },
{ "type": "Feature", "properties": { "Utility Name": "Key Capture Energy", "Plant Code": 64424, "Plant Name": "TX8 Worsham", "County": "Pecos", "Generator ID": "TX8", "Technology": "Batteries", "Nameplate Capacity (MW)": 9.9, "Nameplate Energy Capacity (MWh)": "17.9", "Maximum Charge Rate (MW)": "9.9", "Maximum Discharge Rate (MW)": "9.9", "Operating Year": 2020, "Latitude": "31.35658", "Longitude": "-103.33645" }, "geometry": { "type": "Point", "coordinates": [ -103.33645, 31.35658 ] } },
{ "type": "Feature", "properties": { "Utility Name": "Key Capture Energy", "Plant Code": 64425, "Plant Name": "TX2 Port Lavaca", "County": "Calhoun", "Generator ID": "TX2", "Technology": "Batteries", "Nameplate Capacity (MW)": 9.9, "Nameplate Energy Capacity (MWh)": "11.9", "Maximum Charge Rate (MW)": "9.9", "Maximum Discharge Rate (MW)": "9.9", "Operating Year": 2020, "Latitude": "28.58673", "Longitude": "-96.68376" }, "geometry": { "type": "Point", "coordinates": [ -96.68376, 28.58673 ] } },
{ "type": "Feature", "properties": { "Utility Name": "Gambit Energy Storage LLC", "Plant Code": 64528, "Plant Name": "Gambit Energy Storage - Angleton Storage", "County": "Brazoria", "Generator ID": "1", "Technology": "Batteries", "Nameplate Capacity (MW)": 100.0, "Nameplate Energy Capacity (MWh)": "200", "Maximum Charge Rate (MW)": "100", "Maximum Discharge Rate (MW)": "100", "Operating Year": 2021, "Latitude": "29.16801", "Longitude": "-95.445062" }, "geometry": { "type": "Point", "coordinates": [ -95.445062, 29.16801 ] } },
{ "type": "Feature", "properties": { "Utility Name": "Ranchland Wind Storage, LLC", "Plant Code": 64545, "Plant Name": "Ranchland Wind Storage", "County": "Callahan", "Generator ID": "BA", "Technology": "Batteries", "Nameplate Capacity (MW)": 73.0, "Nameplate Energy Capacity (MWh)": "108.6", "Maximum Charge Rate (MW)": "71.5", "Maximum Discharge Rate (MW)": "71.5", "Operating Year": 2024, "Latitude": "32.308524", "Longitude": "-99.164198" }, "geometry": { "type": "Point", "coordinates": [ -99.164198, 32.308524 ] } },
{ "type": "Feature", "properties": { "Utility Name": "Blue Jay Solar I, LLC", "Plant Code": 64672, "Plant Name": "Blue Jay Solar I, LLC", "County": "Grimes", "Generator ID": "BLUEJ", "Technology": "Batteries", "Nameplate Capacity (MW)": 51.6, "Nameplate Energy Capacity (MWh)": "84.5", "Maximum Charge Rate (MW)": "50", "Maximum Discharge Rate (MW)": "50", "Operating Year": 2023, "Latitude": "30.705329", "Longitude": "-96.069829" }, "geometry": { "type": "Point", "coordinates": [ -96.069829, 30.705329 ] } },
{ "type": "Feature", "properties": { "Utility Name": "VESI Upton County BESS, LLC", "Plant Code": 64811, "Plant Name": "Upton County BESS", "County": "Upton", "Generator ID": "UPT1", "Technology": "Batteries", "Nameplate Capacity (MW)": 24.8, "Nameplate Energy Capacity (MWh)": "25", "Maximum Charge Rate (MW)": "24.8", "Maximum Discharge Rate (MW)": "24.8", "Operating Year": 2023, "Latitude": "31.23924", "Longitude": "-102.32169" }, "geometry": { "type": "Point", "coordinates": [ -102.32169, 31.23924 ] } },
{ "type": "Feature", "properties": { "Utility Name": "Flower Valley", "Plant Code": 64915, "Plant Name": "Flower Valley I", "County": "Reeves", "Generator ID": "FLRV1", "Technology": "Batteries", "Nameplate Capacity (MW)": 9.9, "Nameplate Energy Capacity (MWh)": "19.8", "Maximum Charge Rate (MW)": "9.9", "Maximum Discharge Rate (MW)": "9.9", "Operating Year": 2021, "Latitude": "31.197283", "Longitude": "-103.361769" }, "geometry": { "type": "Point", "coordinates": [ -103.361769, 31.197283 ] } },
{ "type": "Feature", "properties": { "Utility Name": "Swoose", "Plant Code": 64916, "Plant Name": "Swoose I", "County": "Ward", "Generator ID": "SWOO1", "Technology": "Batteries", "Nameplate Capacity (MW)": 9.9, "Nameplate Energy Capacity (MWh)": "19.8", "Maximum Charge Rate (MW)": "9.9", "Maximum Discharge Rate (MW)": "9.9", "Operating Year": 2021, "Latitude": "31.45115", "Longitude": "-103.096242" }, "geometry": { "type": "Point", "coordinates": [ -103.096242, 31.45115 ] } },
{ "type": "Feature", "properties": { "Utility Name": "Triple Butte", "Plant Code": 64917, "Plant Name": "Triple Butte I", "County": "Pecos", "Generator ID": "TRBT1", "Technology": "Batteries", "Nameplate Capacity (MW)": 7.5, "Nameplate Energy Capacity (MWh)": "15", "Maximum Charge Rate (MW)": "7.5", "Maximum Discharge Rate (MW)": "7.5", "Operating Year": 2021, "Latitude": "30.75956", "Longitude": "-103.06786" }, "geometry": { "type": "Point", "coordinates": [ -103.06786, 30.75956 ] } },
{ "type": "Feature", "properties": { "Utility Name": "Enel Green Power Roseland Solar, LLC", "Plant Code": 65028, "Plant Name": "Roseland Solar Project, LLC", "County": "Falls", "Generator ID": "ROSEB", "Technology": "Batteries", "Nameplate Capacity (MW)": 51.8, "Nameplate Energy Capacity (MWh)": "84.5", "Maximum Charge Rate (MW)": "50", "Maximum Discharge Rate (MW)": "50", "Operating Year": 2023, "Latitude": "31.461242", "Longitude": "-96.824928" }, "geometry": { "type": "Point", "coordinates": [ -96.824928, 31.461242 ] } },
{ "type": "Feature", "properties": { "Utility Name": "Byrd Ranch Storage LLC", "Plant Code": 65259, "Plant Name": "Byrd Ranch Storage", "County": "Brazoria", "Generator ID": "P1", "Technology": "Batteries", "Nameplate Capacity (MW)": 50.0, "Nameplate Energy Capacity (MWh)": "50", "Maximum Charge Rate (MW)": "50", "Maximum Discharge Rate (MW)": "50", "Operating Year": 2022, "Latitude": "29.056", "Longitude": "-95.686" }, "geometry": { "type": "Point", "coordinates": [ -95.686, 29.056 ] } },
{ "type": "Feature", "properties": { "Utility Name": "BT Noble Solar, LLC", "Plant Code": 65271, "Plant Name": "Noble Solar", "County": "Denton", "Generator ID": "NBSTG", "Technology": "Batteries", "Nameplate Capacity (MW)": 125.0, "Nameplate Energy Capacity (MWh)": "125", "Maximum Charge Rate (MW)": "125", "Maximum Discharge Rate (MW)": "125", "Operating Year": 2022, "Latitude": "33.261505", "Longitude": "-97.238057" }, "geometry": { "type": "Point", "coordinates": [ -97.238057, 33.261505 ] } },
{ "type": "Feature", "properties": { "Utility Name": "Acciona Energy USA Global, LLC", "Plant Code": 65410, "Plant Name": "Cunningham Storage", "County": "Hunt", "Generator ID": "SPUT", "Technology": "Batteries", "Nameplate Capacity (MW)": 190.0, "Nameplate Energy Capacity (MWh)": "380", "Maximum Charge Rate (MW)": "190", "Maximum Discharge Rate (MW)": "190", "Operating Year": 2023, "Latitude": "33.004305", "Longitude": "-96.075913" }, "geometry": { "type": "Point", "coordinates": [ -96.075913, 33.004305 ] } },
{ "type": "Feature", "properties": { "Utility Name": "Engie North America", "Plant Code": 65489, "Plant Name": "Dickens", "County": "Dickens", "Generator ID": "DIKNS", "Technology": "Batteries", "Nameplate Capacity (MW)": 200.0, "Nameplate Energy Capacity (MWh)": "200", "Maximum Charge Rate (MW)": "200", "Maximum Discharge Rate (MW)": "200", "Operating Year": 2024, "Latitude": "33.781077", "Longitude": "-100.883227" }, "geometry": { "type": "Point", "coordinates": [ -100.883227, 33.781077 ] } },
{ "type": "Feature", "properties": { "Utility Name": "Engie North America", "Plant Code": 65490, "Plant Name": "Hydra", "County": "Pecos", "Generator ID": "HYDRA", "Technology": "Batteries", "Nameplate Capacity (MW)": 200.0, "Nameplate Energy Capacity (MWh)": "200", "Maximum Charge Rate (MW)": "200", "Maximum Discharge Rate (MW)": "200", "Operating Year": 2024, "Latitude": "30.992905", "Longitude": "-102.289475" }, "geometry": { "type": "Point", "coordinates": [ -102.289475, 30.992905 ] } },
{ "type": "Feature", "properties": { "Utility Name": "Engie North America", "Plant Code": 65491, "Plant Name": "Paleo", "County": "Hale", "Generator ID": "PALEO", "Technology": "Batteries", "Nameplate Capacity (MW)": 200.0, "Nameplate Energy Capacity (MWh)": "200", "Maximum Charge Rate (MW)": "200", "Maximum Discharge Rate (MW)": "200", "Operating Year": 2024, "Latitude": "33.889462", "Longitude": "-101.80158" }, "geometry": { "type": "Point", "coordinates": [ -101.80158, 33.889462 ] } },
{ "type": "Feature", "properties": { "Utility Name": "Engie North America", "Plant Code": 65492, "Plant Name": "Pavo", "County": "Pecos", "Generator ID": "PAVO", "Technology": "Batteries", "Nameplate Capacity (MW)": 175.0, "Nameplate Energy Capacity (MWh)": "175", "Maximum Charge Rate (MW)": "175", "Maximum Discharge Rate (MW)": "175", "Operating Year": 2024, "Latitude": "30.885123", "Longitude": "-102.42261" }, "geometry": { "type": "Point", "coordinates": [ -102.42261, 30.885123 ] } },
{ "type": "Feature", "properties": { "Utility Name": "Engie North America", "Plant Code": 65493, "Plant Name": "Tortolas", "County": "Brazoria", "Generator ID": "TORTO", "Technology": "Batteries", "Nameplate Capacity (MW)": 50.0, "Nameplate Energy Capacity (MWh)": "50", "Maximum Charge Rate (MW)": "50", "Maximum Discharge Rate (MW)": "50", "Operating Year": 2024, "Latitude": "29.432362", "Longitude": "-95.250698" }, "geometry": { "type": "Point", "coordinates": [ -95.250698, 29.432362 ] } },
{ "type": "Feature", "properties": { "Utility Name": "Key Capture Energy", "Plant Code": 65693, "Plant Name": "TX10 Hummingbird Storage", "County": "Denton", "Generator ID": "TX10", "Technology": "Batteries", "Nameplate Capacity (MW)": 100.0, "Nameplate Energy Capacity (MWh)": "227", "Maximum Charge Rate (MW)": "100", "Maximum Discharge Rate (MW)": "100", "Operating Year": 2024, "Latitude": "33.3256", "Longitude": "-97.31433" }, "geometry": { "type": "Point", "coordinates": [ -97.31433, 33.3256 ] } },
{ "type": "Feature", "properties": { "Utility Name": "Key Capture Energy", "Plant Code": 65694, "Plant Name": "TX11 Republic Road Storage", "County": "Robertson", "Generator ID": "TX11", "Technology": "Batteries", "Nameplate Capacity (MW)": 50.0, "Nameplate Energy Capacity (MWh)": "50", "Maximum Charge Rate (MW)": "50", "Maximum Discharge Rate (MW)": "50", "Operating Year": 2022, "Latitude": "30.881424", "Longitude": "-96.62542" }, "geometry": { "type": "Point", "coordinates": [ -96.62542, 30.881424 ] } },
{ "type": "Feature", "properties": { "Utility Name": "Key Capture Energy", "Plant Code": 65695, "Plant Name": "TX12 Silicon Hill Storage", "County": "Travis", "Generator ID": "TX12", "Technology": "Batteries", "Nameplate Capacity (MW)": 100.0, "Nameplate Energy Capacity (MWh)": "100", "Maximum Charge Rate (MW)": "100", "Maximum Discharge Rate (MW)": "100", "Operating Year": 2022, "Latitude": "30.41217", "Longitude": "-97.57405" }, "geometry": { "type": "Point", "coordinates": [ -97.57405, 30.41217 ] } },
{ "type": "Feature", "properties": { "Utility Name": "Key Capture Energy", "Plant Code": 65696, "Plant Name": "TX13 Endurance Park Storage", "County": "Scurry", "Generator ID": "TX13", "Technology": "Batteries", "Nameplate Capacity (MW)": 50.0, "Nameplate Energy Capacity (MWh)": "50", "Maximum Charge Rate (MW)": "50", "Maximum Discharge Rate (MW)": "50", "Operating Year": 2022, "Latitude": "32.85583", "Longitude": "-100.991681" }, "geometry": { "type": "Point", "coordinates": [ -100.991681, 32.85583 ] } },
{ "type": "Feature", "properties": { "Utility Name": "Key Capture Energy", "Plant Code": 65698, "Plant Name": "TX15 Limousin Oak Storage", "County": "Grimes", "Generator ID": "TX15", "Technology": "Batteries", "Nameplate Capacity (MW)": 100.0, "Nameplate Energy Capacity (MWh)": "227", "Maximum Charge Rate (MW)": "100", "Maximum Discharge Rate (MW)": "100", "Operating Year": 2024, "Latitude": "30.65991", "Longitude": "-95.973798" }, "geometry": { "type": "Point", "coordinates": [ -95.973798, 30.65991 ] } },
{ "type": "Feature", "properties": { "Utility Name": "Key Capture Energy", "Plant Code": 65699, "Plant Name": "TX19 River Valley Storage 1", "County": "Williamson", "Generator ID": "TX19", "Technology": "Batteries", "Nameplate Capacity (MW)": 50.0, "Nameplate Energy Capacity (MWh)": "111", "Maximum Charge Rate (MW)": "50", "Maximum Discharge Rate (MW)": "50", "Operating Year": 2023, "Latitude": "30.41477", "Longitude": "-97.35701" }, "geometry": { "type": "Point", "coordinates": [ -97.35701, 30.41477 ] } },
{ "type": "Feature", "properties": { "Utility Name": "Key Capture Energy", "Plant Code": 65700, "Plant Name": "TX21 River Valley Storage 2", "County": "Williamson", "Generator ID": "TX21", "Technology": "Batteries", "Nameplate Capacity (MW)": 50.0, "Nameplate Energy Capacity (MWh)": "107", "Maximum Charge Rate (MW)": "50", "Maximum Discharge Rate (MW)": "50", "Operating Year": 2023, "Latitude": "30.41432", "Longitude": "-97.35518" }, "geometry": { "type": "Point", "coordinates": [ -97.35518, 30.41432 ] } },
{ "type": "Feature", "properties": { "Utility Name": "Key Capture Energy", "Plant Code": 65701, "Plant Name": "TX23 Roughneck Storage", "County": "Brazoria", "Generator ID": "TX23", "Technology": "Batteries", "Nameplate Capacity (MW)": 50.0, "Nameplate Energy Capacity (MWh)": "50", "Maximum Charge Rate (MW)": "50", "Maximum Discharge Rate (MW)": "50", "Operating Year": 2022, "Latitude": "29.15923", "Longitude": "-95.6626" }, "geometry": { "type": "Point", "coordinates": [ -95.6626, 29.15923 ] } },
{ "type": "Feature", "properties": { "Utility Name": "HEN Infrastructure, L.L.C.", "Plant Code": 65809, "Plant Name": "Caterina", "County": "Dimmit", "Generator ID": "CATER", "Technology": "Batteries", "Nameplate Capacity (MW)": 9.9, "Nameplate Energy Capacity (MWh)": "9.9", "Maximum Charge Rate (MW)": "9.9", "Maximum Discharge Rate (MW)": "9.9", "Operating Year": 2022, "Latitude": "28.34705", "Longitude": "-99.673703" }, "geometry": { "type": "Point", "coordinates": [ -99.673703, 28.34705 ] } },
{ "type": "Feature", "properties": { "Utility Name": "HEN Infrastructure, L.L.C.", "Plant Code": 65810, "Plant Name": "Cedarville (TX)", "County": "Reeves", "Generator ID": "CDRVL", "Technology": "Batteries", "Nameplate Capacity (MW)": 9.9, "Nameplate Energy Capacity (MWh)": "9.9", "Maximum Charge Rate (MW)": "9.9", "Maximum Discharge Rate (MW)": "9.9", "Operating Year": 2022, "Latitude": "31.514106", "Longitude": "-103.452361" }, "geometry": { "type": "Point", "coordinates": [ -103.452361, 31.514106 ] } },
{ "type": "Feature", "properties": { "Utility Name": "HEN Infrastructure, L.L.C.", "Plant Code": 65811, "Plant Name": "Coyote Springs (TX)", "County": "Reeves", "Generator ID": "CYTSP", "Technology": "Batteries", "Nameplate Capacity (MW)": 9.9, "Nameplate Energy Capacity (MWh)": "9.9", "Maximum Charge Rate (MW)": "9.9", "Maximum Discharge Rate (MW)": "9.9", "Operating Year": 2022, "Latitude": "31.39471", "Longitude": "-103.630336" }, "geometry": { "type": "Point", "coordinates": [ -103.630336, 31.39471 ] } },
{ "type": "Feature", "properties": { "Utility Name": "HEN Infrastructure, L.L.C.", "Plant Code": 65812, "Plant Name": "Farmersville (TX)", "County": "Collin", "Generator ID": "FRMVL", "Technology": "Batteries", "Nameplate Capacity (MW)": 9.9, "Nameplate Energy Capacity (MWh)": "9.9", "Maximum Charge Rate (MW)": "9.9", "Maximum Discharge Rate (MW)": "9.9", "Operating Year": 2024, "Latitude": "33.16111", "Longitude": "-96.409125" }, "geometry": { "type": "Point", "coordinates": [ -96.409125, 33.16111 ] } },
{ "type": "Feature", "properties": { "Utility Name": "HEN Infrastructure, L.L.C.", "Plant Code": 65813, "Plant Name": "Faulkner", "County": "Reeves", "Generator ID": "FAULK", "Technology": "Batteries", "Nameplate Capacity (MW)": 9.9, "Nameplate Energy Capacity (MWh)": "9.9", "Maximum Charge Rate (MW)": "9.9", "Maximum Discharge Rate (MW)": "9.9", "Operating Year": 2022, "Latitude": "31.262381", "Longitude": "-103.794852" }, "geometry": { "type": "Point", "coordinates": [ -103.794852, 31.262381 ] } },
{ "type": "Feature", "properties": { "Utility Name": "HEN Infrastructure, L.L.C.", "Plant Code": 65814, "Plant Name": "Gomez", "County": "Pecos", "Generator ID": "GOMEZ", "Technology": "Batteries", "Nameplate Capacity (MW)": 9.9, "Nameplate Energy Capacity (MWh)": "9.9", "Maximum Charge Rate (MW)": "9.9", "Maximum Discharge Rate (MW)": "9.9", "Operating Year": 2023, "Latitude": "31.036537", "Longitude": "-103.024156" }, "geometry": { "type": "Point", "coordinates": [ -103.024156, 31.036537 ] } },
{ "type": "Feature", "properties": { "Utility Name": "HEN Infrastructure, L.L.C.", "Plant Code": 65829, "Plant Name": "Holcomb (TX)", "County": "La Salle", "Generator ID": "HOLCO", "Technology": "Batteries", "Nameplate Capacity (MW)": 9.9, "Nameplate Energy Capacity (MWh)": "9.9", "Maximum Charge Rate (MW)": "9.9", "Maximum Discharge Rate (MW)": "9.9", "Operating Year": 2023, "Latitude": "28.03534", "Longitude": "-99.361732" }, "geometry": { "type": "Point", "coordinates": [ -99.361732, 28.03534 ] } },
{ "type": "Feature", "properties": { "Utility Name": "HEN Infrastructure, L.L.C.", "Plant Code": 65830, "Plant Name": "Junction (TX)", "County": "Kimble", "Generator ID": "JUNCT", "Technology": "Batteries", "Nameplate Capacity (MW)": 9.9, "Nameplate Energy Capacity (MWh)": "9.9", "Maximum Charge Rate (MW)": "9.9", "Maximum Discharge Rate (MW)": "9.9", "Operating Year": 2023, "Latitude": "30.492453", "Longitude": "-99.770197" }, "geometry": { "type": "Point", "coordinates": [ -99.770197, 30.492453 ] } },
{ "type": "Feature", "properties": { "Utility Name": "HEN Infrastructure, L.L.C.", "Plant Code": 65831, "Plant Name": "Lonestar", "County": "Ward", "Generator ID": "LNSTR", "Technology": "Batteries", "Nameplate Capacity (MW)": 9.9, "Nameplate Energy Capacity (MWh)": "9.9", "Maximum Charge Rate (MW)": "9.9", "Maximum Discharge Rate (MW)": "9.9", "Operating Year": 2022, "Latitude": "31.594864", "Longitude": "-103.249847" }, "geometry": { "type": "Point", "coordinates": [ -103.249847, 31.594864 ] } },
{ "type": "Feature", "properties": { "Utility Name": "HEN Infrastructure, L.L.C.", "Plant Code": 65832, "Plant Name": "Olney", "County": "Young", "Generator ID": "OLNEY", "Technology": "Batteries", "Nameplate Capacity (MW)": 9.9, "Nameplate Energy Capacity (MWh)": "9.9", "Maximum Charge Rate (MW)": "9.9", "Maximum Discharge Rate (MW)": "9.9", "Operating Year": 2023, "Latitude": "33.371086", "Longitude": "-98.720465" }, "geometry": { "type": "Point", "coordinates": [ -98.720465, 33.371086 ] } },
{ "type": "Feature", "properties": { "Utility Name": "HEN Infrastructure, L.L.C.", "Plant Code": 65833, "Plant Name": "Rattlesnake (TX)", "County": "Ward", "Generator ID": "RTLSK", "Technology": "Batteries", "Nameplate Capacity (MW)": 9.9, "Nameplate Energy Capacity (MWh)": "9.9", "Maximum Charge Rate (MW)": "9.9", "Maximum Discharge Rate (MW)": "9.9", "Operating Year": 2022, "Latitude": "31.568978", "Longitude": "-103.226631" }, "geometry": { "type": "Point", "coordinates": [ -103.226631, 31.568978 ] } },
{ "type": "Feature", "properties": { "Utility Name": "HEN Infrastructure, L.L.C.", "Plant Code": 65834, "Plant Name": "Saddleback", "County": "Reeves", "Generator ID": "SDLBK", "Technology": "Batteries", "Nameplate Capacity (MW)": 9.9, "Nameplate Energy Capacity (MWh)": "9.9", "Maximum Charge Rate (MW)": "9.9", "Maximum Discharge Rate (MW)": "9.9", "Operating Year": 2022, "Latitude": "31.332883", "Longitude": "-103.498425" }, "geometry": { "type": "Point", "coordinates": [ -103.498425, 31.332883 ] } },
{ "type": "Feature", "properties": { "Utility Name": "HEN Infrastructure, L.L.C.", "Plant Code": 65835, "Plant Name": "Screwbean", "County": "Culberson", "Generator ID": "SCRWB", "Technology": "Batteries", "Nameplate Capacity (MW)": 9.9, "Nameplate Energy Capacity (MWh)": "9.9", "Maximum Charge Rate (MW)": "9.9", "Maximum Discharge Rate (MW)": "9.9", "Operating Year": 2023, "Latitude": "31.821423", "Longitude": "-104.045071" }, "geometry": { "type": "Point", "coordinates": [ -104.045071, 31.821423 ] } },
{ "type": "Feature", "properties": { "Utility Name": "HEN Infrastructure, L.L.C.", "Plant Code": 65836, "Plant Name": "Toyah Power Station", "County": "Reeves", "Generator ID": "TOYAH", "Technology": "Batteries", "Nameplate Capacity (MW)": 10.4, "Nameplate Energy Capacity (MWh)": "9.9", "Maximum Charge Rate (MW)": "9.9", "Maximum Discharge Rate (MW)": "9.9", "Operating Year": 2021, "Latitude": "31.113909", "Longitude": "-103.66551" }, "geometry": { "type": "Point", "coordinates": [ -103.66551, 31.113909 ] } },
{ "type": "Feature", "properties": { "Utility Name": "HEN Infrastructure, L.L.C.", "Plant Code": 65837, "Plant Name": "Val Verde", "County": "Hidalgo", "Generator ID": "VALVR", "Technology": "Batteries", "Nameplate Capacity (MW)": 9.9, "Nameplate Energy Capacity (MWh)": "9.9", "Maximum Charge Rate (MW)": "9.9", "Maximum Discharge Rate (MW)": "9.9", "Operating Year": 2024, "Latitude": "26.234145", "Longitude": "-98.079848" }, "geometry": { "type": "Point", "coordinates": [ -98.079848, 26.234145 ] } },
{ "type": "Feature", "properties": { "Utility Name": "House Mountain", "Plant Code": 66006, "Plant Name": "House Mountain", "County": "Brewster", "Generator ID": "BA", "Technology": "Batteries", "Nameplate Capacity (MW)": 73.2, "Nameplate Energy Capacity (MWh)": "120", "Maximum Charge Rate (MW)": "60", "Maximum Discharge Rate (MW)": "60", "Operating Year": 2024, "Latitude": "30.495668", "Longitude": "-103.450965" }, "geometry": { "type": "Point", "coordinates": [ -103.450965, 30.495668 ] } },
{ "type": "Feature", "properties": { "Utility Name": "Flower Valley II", "Plant Code": 66007, "Plant Name": "Flower Valley II", "County": "Reeves", "Generator ID": "BA", "Technology": "Batteries", "Nameplate Capacity (MW)": 101.0, "Nameplate Energy Capacity (MWh)": "200", "Maximum Charge Rate (MW)": "100", "Maximum Discharge Rate (MW)": "100", "Operating Year": 2022, "Latitude": "31.197285", "Longitude": "-103.361771" }, "geometry": { "type": "Point", "coordinates": [ -103.361771, 31.197285 ] } },
{ "type": "Feature", "properties": { "Utility Name": "Swoose II", "Plant Code": 66008, "Plant Name": "Swoose II", "County": "Ward", "Generator ID": "BA", "Technology": "Batteries", "Nameplate Capacity (MW)": 101.0, "Nameplate Energy Capacity (MWh)": "200", "Maximum Charge Rate (MW)": "100", "Maximum Discharge Rate (MW)": "100", "Operating Year": 2022, "Latitude": "31.45115", "Longitude": "-103.361771" }, "geometry": { "type": "Point", "coordinates": [ -103.361771, 31.45115 ] } },
{ "type": "Feature", "properties": { "Utility Name": "Crossett Power Management LLC", "Plant Code": 66009, "Plant Name": "Crossett Power Management LLC", "County": "Crane", "Generator ID": "BA", "Technology": "Batteries", "Nameplate Capacity (MW)": 203.0, "Nameplate Energy Capacity (MWh)": "400", "Maximum Charge Rate (MW)": "200", "Maximum Discharge Rate (MW)": "200", "Operating Year": 2022, "Latitude": "31.191687", "Longitude": "-102.317227" }, "geometry": { "type": "Point", "coordinates": [ -102.317227, 31.191687 ] } },
{ "type": "Feature", "properties": { "Utility Name": "Cypress Creek Renewables", "Plant Code": 66137, "Plant Name": "Zier Solar", "County": "Kinney", "Generator ID": "11023", "Technology": "Batteries", "Nameplate Capacity (MW)": 40.4, "Nameplate Energy Capacity (MWh)": "80", "Maximum Charge Rate (MW)": "40.4", "Maximum Discharge Rate (MW)": "40.4", "Operating Year": 2024, "Latitude": "29.350992", "Longitude": "-100.562028" }, "geometry": { "type": "Point", "coordinates": [ -100.562028, 29.350992 ] } },
{ "type": "Feature", "properties": { "Utility Name": "Crane 2 BESS, LLC", "Plant Code": 66170, "Plant Name": "Revolution", "County": "Crane", "Generator ID": "1", "Technology": "Batteries", "Nameplate Capacity (MW)": 150.0, "Nameplate Energy Capacity (MWh)": "368.8", "Maximum Charge Rate (MW)": "150", "Maximum Discharge Rate (MW)": "150", "Operating Year": 2023, "Latitude": "31.233457", "Longitude": "-102.308519" }, "geometry": { "type": "Point", "coordinates": [ -102.308519, 31.233457 ] } },
{ "type": "Feature", "properties": { "Utility Name": "St. Gall Energy Storage I", "Plant Code": 66336, "Plant Name": "St. Gall Energy Storage I", "County": "Pecos", "Generator ID": "SGES1", "Technology": "Batteries", "Nameplate Capacity (MW)": 102.6, "Nameplate Energy Capacity (MWh)": "200", "Maximum Charge Rate (MW)": "100", "Maximum Discharge Rate (MW)": "100", "Operating Year": 2024, "Latitude": "30.924381", "Longitude": "-102.953583" }, "geometry": { "type": "Point", "coordinates": [ -102.953583, 30.924381 ] } },
{ "type": "Feature", "properties": { "Utility Name": "Callisto I Energy Center", "Plant Code": 66338, "Plant Name": "Callisto I Energy Center", "County": "Harris", "Generator ID": "CALL1", "Technology": "Batteries", "Nameplate Capacity (MW)": 223.4, "Nameplate Energy Capacity (MWh)": "200", "Maximum Charge Rate (MW)": "100", "Maximum Discharge Rate (MW)": "100", "Operating Year": 2024, "Latitude": "29.646811", "Longitude": "-95.450539" }, "geometry": { "type": "Point", "coordinates": [ -95.450539, 29.646811 ] } },
{ "type": "Feature", "properties": { "Utility Name": "Five Wells Solar Center, LLC", "Plant Code": 66420, "Plant Name": "Five Wells Solar Center - Hybrid", "County": "Bell", "Generator ID": "FWBAT", "Technology": "Batteries", "Nameplate Capacity (MW)": 262.5, "Nameplate Energy Capacity (MWh)": "250", "Maximum Charge Rate (MW)": "125", "Maximum Discharge Rate (MW)": "125", "Operating Year": 2024, "Latitude": "30.998647", "Longitude": "-97.259017" }, "geometry": { "type": "Point", "coordinates": [ -97.259017, 30.998647 ] } },
{ "type": "Feature", "properties": { "Utility Name": "Wolf Tank Storage LLC", "Plant Code": 66616, "Plant Name": "Wolf Tank Storage", "County": "Webb", "Generator ID": "1", "Technology": "Batteries", "Nameplate Capacity (MW)": 150.0, "Nameplate Energy Capacity (MWh)": "150", "Maximum Charge Rate (MW)": "150", "Maximum Discharge Rate (MW)": "150", "Operating Year": 2023, "Latitude": "27.577207", "Longitude": "-99.276018" }, "geometry": { "type": "Point", "coordinates": [ -99.276018, 27.577207 ] } },
{ "type": "Feature", "properties": { "Utility Name": "Cypress Creek Renewables", "Plant Code": 66690, "Plant Name": "Brazos Bend BESS, LLC", "County": "Fort Bend", "Generator ID": "BEND", "Technology": "Batteries", "Nameplate Capacity (MW)": 100.0, "Nameplate Energy Capacity (MWh)": "100", "Maximum Charge Rate (MW)": "100", "Maximum Discharge Rate (MW)": "100", "Operating Year": 2024, "Latitude": "29.56318", "Longitude": "-95.80023" }, "geometry": { "type": "Point", "coordinates": [ -95.80023, 29.56318 ] } },
{ "type": "Feature", "properties": { "Utility Name": "HEN Infrastructure, L.L.C.", "Plant Code": 66782, "Plant Name": "Hamilton BESS", "County": "Val Verde", "Generator ID": "HAMIL", "Technology": "Batteries", "Nameplate Capacity (MW)": 9.9, "Nameplate Energy Capacity (MWh)": "9.9", "Maximum Charge Rate (MW)": "9.9", "Maximum Discharge Rate (MW)": "9.9", "Operating Year": 2024, "Latitude": "29.376438", "Longitude": "-100.848513" }, "geometry": { "type": "Point", "coordinates": [ -100.848513, 29.376438 ] } },
{ "type": "Feature", "properties": { "Utility Name": "HEN Infrastructure, L.L.C.", "Plant Code": 66783, "Plant Name": "Weil Tract BESS", "County": "Nueces", "Generator ID": "WEILT", "Technology": "Batteries", "Nameplate Capacity (MW)": 9.9, "Nameplate Energy Capacity (MWh)": "9.9", "Maximum Charge Rate (MW)": "9.9", "Maximum Discharge Rate (MW)": "9.9", "Operating Year": 2024, "Latitude": "27.796921", "Longitude": "-97.487069" }, "geometry": { "type": "Point", "coordinates": [ -97.487069, 27.796921 ] } },
{ "type": "Feature", "properties": { "Utility Name": "HEN Infrastructure, L.L.C.", "Plant Code": 66784, "Plant Name": "Pauline BESS", "County": "Henderson", "Generator ID": "PAULN", "Technology": "Batteries", "Nameplate Capacity (MW)": 9.9, "Nameplate Energy Capacity (MWh)": "9.9", "Maximum Charge Rate (MW)": "9.9", "Maximum Discharge Rate (MW)": "9.9", "Operating Year": 2024, "Latitude": "32.335025", "Longitude": "-96.057897" }, "geometry": { "type": "Point", "coordinates": [ -96.057897, 32.335025 ] } },
{ "type": "Feature", "properties": { "Utility Name": "HEN Infrastructure, L.L.C.", "Plant Code": 66788, "Plant Name": "Mineral Wells East BESS", "County": "Palo Pinto", "Generator ID": "MNWLE", "Technology": "Batteries", "Nameplate Capacity (MW)": 9.9, "Nameplate Energy Capacity (MWh)": "9.9", "Maximum Charge Rate (MW)": "9.9", "Maximum Discharge Rate (MW)": "9.9", "Operating Year": 2024, "Latitude": "32.798754", "Longitude": "-98.064973" }, "geometry": { "type": "Point", "coordinates": [ -98.064973, 32.798754 ] } },
{ "type": "Feature", "properties": { "Utility Name": "HEN Infrastructure, L.L.C.", "Plant Code": 66789, "Plant Name": "Lufkin South BESS", "County": "Angelina", "Generator ID": "LUFKS", "Technology": "Batteries", "Nameplate Capacity (MW)": 9.9, "Nameplate Energy Capacity (MWh)": "9.9", "Maximum Charge Rate (MW)": "9.9", "Maximum Discharge Rate (MW)": "9.9", "Operating Year": 2024, "Latitude": "31.291983", "Longitude": "-94.724236" }, "geometry": { "type": "Point", "coordinates": [ -94.724236, 31.291983 ] } },
{ "type": "Feature", "properties": { "Utility Name": "HEN Infrastructure, L.L.C.", "Plant Code": 66790, "Plant Name": "Judkins BESS", "County": "Ector", "Generator ID": "JUDKS", "Technology": "Batteries", "Nameplate Capacity (MW)": 9.9, "Nameplate Energy Capacity (MWh)": "9.9", "Maximum Charge Rate (MW)": "9.9", "Maximum Discharge Rate (MW)": "9.9", "Operating Year": 2024, "Latitude": "31.715592", "Longitude": "-102.598106" }, "geometry": { "type": "Point", "coordinates": [ -102.598106, 31.715592 ] } },
{ "type": "Feature", "properties": { "Utility Name": "HEN Infrastructure, L.L.C.", "Plant Code": 66791, "Plant Name": "Garden City East BESS", "County": "Glasscock", "Generator ID": "GRDNE", "Technology": "Batteries", "Nameplate Capacity (MW)": 9.9, "Nameplate Energy Capacity (MWh)": "9.9", "Maximum Charge Rate (MW)": "9.9", "Maximum Discharge Rate (MW)": "9.9", "Operating Year": 2024, "Latitude": "31.867209", "Longitude": "-101.469373" }, "geometry": { "type": "Point", "coordinates": [ -101.469373, 31.867209 ] } },
{ "type": "Feature", "properties": { "Utility Name": "HEN Infrastructure, L.L.C.", "Plant Code": 66792, "Plant Name": "Falfurrias BESS", "County": "Brooks", "Generator ID": "FALFU", "Technology": "Batteries", "Nameplate Capacity (MW)": 9.9, "Nameplate Energy Capacity (MWh)": "9.9", "Maximum Charge Rate (MW)": "9.9", "Maximum Discharge Rate (MW)": "9.9", "Operating Year": 2024, "Latitude": "27.242427", "Longitude": "-98.140545" }, "geometry": { "type": "Point", "coordinates": [ -98.140545, 27.242427 ] } },
{ "type": "Feature", "properties": { "Utility Name": "HEN Infrastructure, L.L.C.", "Plant Code": 66794, "Plant Name": "Diboll BESS", "County": "Angelina", "Generator ID": "DIBOL", "Technology": "Batteries", "Nameplate Capacity (MW)": 9.9, "Nameplate Energy Capacity (MWh)": "9.9", "Maximum Charge Rate (MW)": "9.9", "Maximum Discharge Rate (MW)": "9.9", "Operating Year": 2024, "Latitude": "31.193794", "Longitude": "-94.798183" }, "geometry": { "type": "Point", "coordinates": [ -94.798183, 31.193794 ] } },
{ "type": "Feature", "properties": { "Utility Name": "HEN Infrastructure, L.L.C.", "Plant Code": 66795, "Plant Name": "CISCO BESS", "County": "Eastland", "Generator ID": "CISCO", "Technology": "Batteries", "Nameplate Capacity (MW)": 9.9, "Nameplate Energy Capacity (MWh)": "9.9", "Maximum Charge Rate (MW)": "9.9", "Maximum Discharge Rate (MW)": "9.9", "Operating Year": 2024, "Latitude": "32.391533", "Longitude": "-98.978156" }, "geometry": { "type": "Point", "coordinates": [ -98.978156, 32.391533 ] } },
{ "type": "Feature", "properties": { "Utility Name": "Fence Post Solar Project, LLC", "Plant Code": 66801, "Plant Name": "Fence Post Solar Hybrid Project, LLC", "County": "Navarro", "Generator ID": "FNCBE", "Technology": "Batteries", "Nameplate Capacity (MW)": 72.0, "Nameplate Energy Capacity (MWh)": "115", "Maximum Charge Rate (MW)": "70", "Maximum Discharge Rate (MW)": "70", "Operating Year": 2024, "Latitude": "32.072844", "Longitude": "-96.22393" }, "geometry": { "type": "Point", "coordinates": [ -96.22393, 32.072844 ] } },
{ "type": "Feature", "properties": { "Utility Name": "Borden County Battery Energy Storage System LLC", "Plant Code": 66804, "Plant Name": "Borden County BESS", "County": "Borden", "Generator ID": "1", "Technology": "Batteries", "Nameplate Capacity (MW)": 150.0, "Nameplate Energy Capacity (MWh)": "300", "Maximum Charge Rate (MW)": "150", "Maximum Discharge Rate (MW)": "150", "Operating Year": 2024, "Latitude": "32.72233", "Longitude": "-101.638499" }, "geometry": { "type": "Point", "coordinates": [ -101.638499, 32.72233 ] } },
{ "type": "Feature", "properties": { "Utility Name": "SMT Mercedes LLC", "Plant Code": 66926, "Plant Name": "SMT Mercedes LLC", "County": "Hidalgo", "Generator ID": "SMTNM", "Technology": "Batteries", "Nameplate Capacity (MW)": 10.0, "Nameplate Energy Capacity (MWh)": "10", "Maximum Charge Rate (MW)": "10", "Maximum Discharge Rate (MW)": "10", "Operating Year": 2023, "Latitude": "26.230501", "Longitude": "-97.912557" }, "geometry": { "type": "Point", "coordinates": [ -97.912557, 26.230501 ] } },
{ "type": "Feature", "properties": { "Utility Name": "SMT Mission LLC", "Plant Code": 66927, "Plant Name": "SMT Mission LLC", "County": "Hidalgo", "Generator ID": "SMTMB", "Technology": "Batteries", "Nameplate Capacity (MW)": 10.0, "Nameplate Energy Capacity (MWh)": "10", "Maximum Charge Rate (MW)": "10", "Maximum Discharge Rate (MW)": "10", "Operating Year": 2023, "Latitude": "26.189433", "Longitude": "-98.322929" }, "geometry": { "type": "Point", "coordinates": [ -98.322929, 26.189433 ] } },
{ "type": "Feature", "properties": { "Utility Name": "SMT Santa Rosa LLC", "Plant Code": 66928, "Plant Name": "SMT Santa Rosa LLC", "County": "Cameron", "Generator ID": "SMTSR", "Technology": "Batteries", "Nameplate Capacity (MW)": 10.0, "Nameplate Energy Capacity (MWh)": "10", "Maximum Charge Rate (MW)": "10", "Maximum Discharge Rate (MW)": "10", "Operating Year": 2023, "Latitude": "26.232466", "Longitude": "-97.823173" }, "geometry": { "type": "Point", "coordinates": [ -97.823173, 26.232466 ] } },
{ "type": "Feature", "properties": { "Utility Name": "SMT Alamo LLC", "Plant Code": 66929, "Plant Name": "SMT Alamo LLC", "County": "Hidalgo", "Generator ID": "SMTAL", "Technology": "Batteries", "Nameplate Capacity (MW)": 10.0, "Nameplate Energy Capacity (MWh)": "10", "Maximum Charge Rate (MW)": "10", "Maximum Discharge Rate (MW)": "10", "Operating Year": 2023, "Latitude": "26.230677", "Longitude": "-98.114039" }, "geometry": { "type": "Point", "coordinates": [ -98.114039, 26.230677 ] } },
{ "type": "Feature", "properties": { "Utility Name": "SMT Bay City LLC", "Plant Code": 66930, "Plant Name": "SMT Bay City LLC", "County": "Matagorda", "Generator ID": "SMTBC", "Technology": "Batteries", "Nameplate Capacity (MW)": 10.0, "Nameplate Energy Capacity (MWh)": "10", "Maximum Charge Rate (MW)": "8", "Maximum Discharge Rate (MW)": "10", "Operating Year": 2023, "Latitude": "28.987572", "Longitude": "-95.969842" }, "geometry": { "type": "Point", "coordinates": [ -95.969842, 28.987572 ] } },
{ "type": "Feature", "properties": { "Utility Name": "SMT Elsa LLC", "Plant Code": 66931, "Plant Name": "SMT Elsa LLC", "County": "Hidalgo", "Generator ID": "SMTEL", "Technology": "Batteries", "Nameplate Capacity (MW)": 10.0, "Nameplate Energy Capacity (MWh)": "10", "Maximum Charge Rate (MW)": "6", "Maximum Discharge Rate (MW)": "10", "Operating Year": 2023, "Latitude": "26.296101", "Longitude": "-98.0096" }, "geometry": { "type": "Point", "coordinates": [ -98.0096, 26.296101 ] } },
{ "type": "Feature", "properties": { "Utility Name": "SMT Los Fresnos LLC", "Plant Code": 66932, "Plant Name": "SMT Los Fresnos LLC", "County": "Cameron", "Generator ID": "SMTLF", "Technology": "Batteries", "Nameplate Capacity (MW)": 10.0, "Nameplate Energy Capacity (MWh)": "10", "Maximum Charge Rate (MW)": "10", "Maximum Discharge Rate (MW)": "10", "Operating Year": 2023, "Latitude": "26.074676", "Longitude": "-97.52318" }, "geometry": { "type": "Point", "coordinates": [ -97.52318, 26.074676 ] } },
{ "type": "Feature", "properties": { "Utility Name": "SMT Harlingen II LLC", "Plant Code": 66933, "Plant Name": "SMT Harlingen II LLC", "County": "Cameron", "Generator ID": "SMTH2", "Technology": "Batteries", "Nameplate Capacity (MW)": 10.0, "Nameplate Energy Capacity (MWh)": "10", "Maximum Charge Rate (MW)": "10", "Maximum Discharge Rate (MW)": "10", "Operating Year": 2023, "Latitude": "26.179999", "Longitude": "-97.725607" }, "geometry": { "type": "Point", "coordinates": [ -97.725607, 26.179999 ] } },
{ "type": "Feature", "properties": { "Utility Name": "SMT Rio Grande I LLC", "Plant Code": 66934, "Plant Name": "SMT Rio Grande I LLC", "County": "Starr", "Generator ID": "SMTR1", "Technology": "Batteries", "Nameplate Capacity (MW)": 10.0, "Nameplate Energy Capacity (MWh)": "10", "Maximum Charge Rate (MW)": "8.5", "Maximum Discharge Rate (MW)": "10", "Operating Year": 2023, "Latitude": "26.408729", "Longitude": "-98.937425" }, "geometry": { "type": "Point", "coordinates": [ -98.937425, 26.408729 ] } },
{ "type": "Feature", "properties": { "Utility Name": "SMT Rio Grande II LLC", "Plant Code": 66935, "Plant Name": "SMT Rio Grande II LLC", "County": "Starr", "Generator ID": "SMTR2", "Technology": "Batteries", "Nameplate Capacity (MW)": 10.0, "Nameplate Energy Capacity (MWh)": "10", "Maximum Charge Rate (MW)": "10", "Maximum Discharge Rate (MW)": "10", "Operating Year": 2023, "Latitude": "26.390951", "Longitude": "-98.820386" }, "geometry": { "type": "Point", "coordinates": [ -98.820386, 26.390951 ] } },
{ "type": "Feature", "properties": { "Utility Name": "National Grid Renewables", "Plant Code": 67019, "Plant Name": "Copperhead Solar, LLC", "County": "McLennan", "Generator ID": "CHSTG", "Technology": "Batteries", "Nameplate Capacity (MW)": 100.0, "Nameplate Energy Capacity (MWh)": "100", "Maximum Charge Rate (MW)": "100", "Maximum Discharge Rate (MW)": "100", "Operating Year": 2024, "Latitude": "31.45", "Longitude": "-96.86" }, "geometry": { "type": "Point", "coordinates": [ -96.86, 31.45 ] } },
{ "type": "Feature", "properties": { "Utility Name": "Longbow BESS, LLC", "Plant Code": 67083, "Plant Name": "Longbow BESS, LLC", "County": "Brazoria", "Generator ID": "LBBES", "Technology": "Batteries", "Nameplate Capacity (MW)": 174.0, "Nameplate Energy Capacity (MWh)": "407.4", "Maximum Charge Rate (MW)": "174", "Maximum Discharge Rate (MW)": "174", "Operating Year": 2024, "Latitude": "29.281605", "Longitude": "-95.295533" }, "geometry": { "type": "Point", "coordinates": [ -95.295533, 29.281605 ] } },
{ "type": "Feature", "properties": { "Utility Name": "Rodeo Ranch Energy Storage, LLC", "Plant Code": 67175, "Plant Name": "Rodeo Ranch Energy Storage", "County": "Reeves", "Generator ID": "RODE1", "Technology": "Batteries", "Nameplate Capacity (MW)": 300.0, "Nameplate Energy Capacity (MWh)": "600", "Maximum Charge Rate (MW)": "300", "Maximum Discharge Rate (MW)": "300", "Operating Year": 2023, "Latitude": "31.36", "Longitude": "-103.33" }, "geometry": { "type": "Point", "coordinates": [ -103.33, 31.36 ] } },
{ "type": "Feature", "properties": { "Utility Name": "Anemoi Energy Storage, LLC", "Plant Code": 67236, "Plant Name": "Anemoi Energy Storage", "County": "Hidalgo", "Generator ID": "ANEM1", "Technology": "Batteries", "Nameplate Capacity (MW)": 200.0, "Nameplate Energy Capacity (MWh)": "400", "Maximum Charge Rate (MW)": "200", "Maximum Discharge Rate (MW)": "200", "Operating Year": 2024, "Latitude": "26.45", "Longitude": "-98.48" }, "geometry": { "type": "Point", "coordinates": [ -98.48, 26.45 ] } },
{ "type": "Feature", "properties": { "Utility Name": "Ebony Energy Storage, LLC", "Plant Code": 67237, "Plant Name": "Ebony Energy Storage", "County": "Comal", "Generator ID": "EBON1", "Technology": "Batteries", "Nameplate Capacity (MW)": 207.9, "Nameplate Energy Capacity (MWh)": "400", "Maximum Charge Rate (MW)": "200", "Maximum Discharge Rate (MW)": "200", "Operating Year": 2024, "Latitude": "29.620088", "Longitude": "-98.334481" }, "geometry": { "type": "Point", "coordinates": [ -98.334481, 29.620088 ] } },
{ "type": "Feature", "properties": { "Utility Name": "Enel Green Power NA, Inc.", "Plant Code": 67284, "Plant Name": "Ganado Solar", "County": "Jackson", "Generator ID": "GBA", "Technology": "Batteries", "Nameplate Capacity (MW)": 70.5, "Nameplate Energy Capacity (MWh)": "115", "Maximum Charge Rate (MW)": "70", "Maximum Discharge Rate (MW)": "70", "Operating Year": 2024, "Latitude": "29.109147", "Longitude": "-96.528761" }, "geometry": { "type": "Point", "coordinates": [ -96.528761, 29.109147 ] } },
{ "type": "Feature", "properties": { "Utility Name": "HEN Infrastructure, L.L.C.", "Plant Code": 67493, "Plant Name": "Pavlov", "County": "Matagorda", "Generator ID": "PAVLV", "Technology": "Batteries", "Nameplate Capacity (MW)": 9.9, "Nameplate Energy Capacity (MWh)": "9.9", "Maximum Charge Rate (MW)": "9.9", "Maximum Discharge Rate (MW)": "9.9", "Operating Year": 2024, "Latitude": "28.994112", "Longitude": "-96.126203" }, "geometry": { "type": "Point", "coordinates": [ -96.126203, 28.994112 ] } },
{ "type": "Feature", "properties": { "Utility Name": "HEN Infrastructure, L.L.C.", "Plant Code": 67494, "Plant Name": "Mainland", "County": "Galveston", "Generator ID": "MLNDB", "Technology": "Batteries", "Nameplate Capacity (MW)": 9.9, "Nameplate Energy Capacity (MWh)": "9.9", "Maximum Charge Rate (MW)": "9.9", "Maximum Discharge Rate (MW)": "9.9", "Operating Year": 2024, "Latitude": "29.39521", "Longitude": "-95.04077" }, "geometry": { "type": "Point", "coordinates": [ -95.04077, 29.39521 ] } },
{ "type": "Feature", "properties": { "Utility Name": "HEN Infrastructure, L.L.C.", "Plant Code": 67496, "Plant Name": "Sandlake", "County": "Reeves", "Generator ID": "SDLKB", "Technology": "Batteries", "Nameplate Capacity (MW)": 9.9, "Nameplate Energy Capacity (MWh)": "9.9", "Maximum Charge Rate (MW)": "9.9", "Maximum Discharge Rate (MW)": "9.9", "Operating Year": 2024, "Latitude": "31.508786", "Longitude": "-103.617546" }, "geometry": { "type": "Point", "coordinates": [ -103.617546, 31.508786 ] } },
{ "type": "Feature", "properties": { "Utility Name": "Al Pastor BESS LLC", "Plant Code": 67721, "Plant Name": "Al Pastor Battery Storage Plant", "County": "Dawson", "Generator ID": "ALPTR", "Technology": "Batteries", "Nameplate Capacity (MW)": 100.3, "Nameplate Energy Capacity (MWh)": "145", "Maximum Charge Rate (MW)": "100.3", "Maximum Discharge Rate (MW)": "100.3", "Operating Year": 2024, "Latitude": "32.7171", "Longitude": "-101.9378" }, "geometry": { "type": "Point", "coordinates": [ -101.9378, 32.7171 ] } },
{ "type": "Feature", "properties": { "Utility Name": "Citadel BESS LLC", "Plant Code": 67738, "Plant Name": "Citadel Battery Storage Plant", "County": "Harris", "Generator ID": "CITDL", "Technology": "Batteries", "Nameplate Capacity (MW)": 204.0, "Nameplate Energy Capacity (MWh)": "298", "Maximum Charge Rate (MW)": "204", "Maximum Discharge Rate (MW)": "204", "Operating Year": 2024, "Latitude": "29.87404", "Longitude": "-95.018244" }, "geometry": { "type": "Point", "coordinates": [ -95.018244, 29.87404 ] } },
{ "type": "Feature", "properties": { "Utility Name": "Wigeon Whistle BESS LLC", "Plant Code": 67739, "Plant Name": "Wigeon Whistle Battery Storage Plant", "County": "Collin", "Generator ID": "WIDWH", "Technology": "Batteries", "Nameplate Capacity (MW)": 120.0, "Nameplate Energy Capacity (MWh)": "174", "Maximum Charge Rate (MW)": "120", "Maximum Discharge Rate (MW)": "120", "Operating Year": 2024, "Latitude": "33.030354", "Longitude": "-96.357203" }, "geometry": { "type": "Point", "coordinates": [ -96.357203, 33.030354 ] } },
{ "type": "Feature", "properties": { "Utility Name": "Stampede Solar Project LLC", "Plant Code": 67762, "Plant Name": "Stampede Solar Hybrid", "County": "Hopkins", "Generator ID": "STMPB", "Technology": "Batteries", "Nameplate Capacity (MW)": 72.2, "Nameplate Energy Capacity (MWh)": "115", "Maximum Charge Rate (MW)": "70", "Maximum Discharge Rate (MW)": "70", "Operating Year": 2024, "Latitude": "33.201315", "Longitude": "-95.319229" }, "geometry": { "type": "Point", "coordinates": [ -95.319229, 33.201315 ] } },
{ "type": "Feature", "properties": { "Utility Name": "Giga Texas Energy LLC", "Plant Code": 67860, "Plant Name": "GFTX BESS", "County": "Travis", "Generator ID": "GFTX", "Technology": "Batteries", "Nameplate Capacity (MW)": 125.0, "Nameplate Energy Capacity (MWh)": "250", "Maximum Charge Rate (MW)": "125", "Maximum Discharge Rate (MW)": "125", "Operating Year": 2024, "Latitude": "30.228276", "Longitude": "-97.618833" }, "geometry": { "type": "Point", "coordinates": [ -97.618833, 30.228276 ] } },
{ "type": "Feature", "properties": { "Utility Name": "BT Connolly Storage, LLC", "Plant Code": 67861, "Plant Name": "Connolly BESS", "County": "Wise", "Generator ID": "CNLY", "Technology": "Batteries", "Nameplate Capacity (MW)": 125.0, "Nameplate Energy Capacity (MWh)": "250", "Maximum Charge Rate (MW)": "125", "Maximum Discharge Rate (MW)": "125", "Operating Year": 2024, "Latitude": "33.210732", "Longitude": "-97.418986" }, "geometry": { "type": "Point", "coordinates": [ -97.418986, 33.210732 ] } },
{ "type": "Feature", "properties": { "Utility Name": "Prologis Logistics Services Incorporated BESS", "Plant Code": 68683, "Plant Name": "Crockett BESS", "County": "Harris", "Generator ID": "HO241", "Technology": "Batteries", "Nameplate Capacity (MW)": 10.0, "Nameplate Energy Capacity (MWh)": "24.8", "Maximum Charge Rate (MW)": "10", "Maximum Discharge Rate (MW)": "10", "Operating Year": 2024, "Latitude": "29.77682", "Longitude": "-95.37989" }, "geometry": { "type": "Point", "coordinates": [ -95.37989, 29.77682 ] } },
{ "type": "Feature", "properties": { "Utility Name": "Prologis Logistics Services Incorporated BESS", "Plant Code": 68684, "Plant Name": "Century BESS", "County": "Tarrant", "Generator ID": "DL805", "Technology": "Batteries", "Nameplate Capacity (MW)": 10.0, "Nameplate Energy Capacity (MWh)": "24.8", "Maximum Charge Rate (MW)": "10", "Maximum Discharge Rate (MW)": "10", "Operating Year": 2024, "Latitude": "32.68657", "Longitude": "-97.083253" }, "geometry": { "type": "Point", "coordinates": [ -97.083253, 32.68657 ] } },
{ "type": "Feature", "properties": { "Utility Name": "Prologis Logistics Services Incorporated BESS", "Plant Code": 68685, "Plant Name": "Liggett Switch", "County": "Tarrant", "Generator ID": "DL745", "Technology": "Batteries", "Nameplate Capacity (MW)": 10.0, "Nameplate Energy Capacity (MWh)": "12.4", "Maximum Charge Rate (MW)": "10", "Maximum Discharge Rate (MW)": "10", "Operating Year": 2024, "Latitude": "32.81479", "Longitude": "-97.025" }, "geometry": { "type": "Point", "coordinates": [ -97.025, 32.81479 ] } },
{ "type": "Feature", "properties": { "Utility Name": "Longhorn Storage LLC", "Plant Code": 68878, "Plant Name": "Longhorn Storage", "County": "Eastland", "Generator ID": "LONGH", "Technology": "Batteries", "Nameplate Capacity (MW)": 165.0, "Nameplate Energy Capacity (MWh)": "165", "Maximum Charge Rate (MW)": "150", "Maximum Discharge Rate (MW)": "150", "Operating Year": 2024, "Latitude": "32.428686", "Longitude": "-99.159114" }, "geometry": { "type": "Point", "coordinates": [ -99.159114, 32.428686 ] } },
{ "type": "Feature", "properties": { "Utility Name": "Libra Storage LLC", "Plant Code": 68895, "Plant Name": "Libra Storage", "County": "Guadalupe", "Generator ID": "LIBR", "Technology": "Batteries", "Nameplate Capacity (MW)": 236.3, "Nameplate Energy Capacity (MWh)": "236.3", "Maximum Charge Rate (MW)": "200", "Maximum Discharge Rate (MW)": "200", "Operating Year": 2023, "Latitude": "29.466592", "Longitude": "-98.002839" }, "geometry": { "type": "Point", "coordinates": [ -98.002839, 29.466592 ] } },
{ "type": "Feature", "properties": { "Utility Name": "Sun Valley Storage LLC", "Plant Code": 68896, "Plant Name": "Sun Valley Storage", "County": "Hill", "Generator ID": "SUNVB", "Technology": "Batteries", "Nameplate Capacity (MW)": 123.3, "Nameplate Energy Capacity (MWh)": "123", "Maximum Charge Rate (MW)": "100", "Maximum Discharge Rate (MW)": "100", "Operating Year": 2024, "Latitude": "31.857837", "Longitude": "-97.017128" }, "geometry": { "type": "Point", "coordinates": [ -97.017128, 31.857837 ] } }
]
}
