{"type": "FeatureCollection", "features": [{"type": "Feature", "properties": {}, "geometry": {"type": "Polygon", "coordinates": [[[-95.365085, 29.870732000000007], [-95.409817, 29.89707699999997], [-95.412453, 29.899646000000004], [-95.412695, 29.915070999999966], [-95.412312, 29.924676000000012], [-95.411984, 29.931799000000016], [-95.401137, 29.948341999999972], [-95.38586, 29.949309999999965], [-95.384067, 29.949387999999967], [-95.35606900000002, 29.93135500000001], [-95.342961, 29.886740999999986], [-95.340848, 29.872928999999996], [-95.341097, 29.871073000000017], [-95.365085, 29.870732000000007]]]}}]}