{
"type": "FeatureCollection",
"name": "heat_zone_grid_tx",
"crs": { "type": "name", "properties": { "name": "urn:ogc:def:crs:OGC:1.3:CRS84" } },
"features": [
{ "type": "Feature", "properties": { "zone_id": "Z00002" }, "geometry": { "type": "Polygon", "coordinates": [ [ [ -95.402695, 29.890732 ], [ -95.402695, 29.900732 ], [ -95.412695, 29.900732 ], [ -95.412695, 29.890732 ], [ -95.402695, 29.890732 ] ] ] } },
{ "type": "Feature", "properties": { "zone_id": "Z00003" }, "geometry": { "type": "Polygon", "coordinates": [ [ [ -95.402695, 29.900732 ], [ -95.402695, 29.910732 ], [ -95.412695, 29.910732 ], [ -95.412695, 29.900732 ], [ -95.402695, 29.900732 ] ] ] } },
{ "type": "Feature", "properties": { "zone_id": "Z00004" }, "geometry": { "type": "Polygon", "coordinates": [ [ [ -95.402695, 29.910732 ], [ -95.402695, 29.920732 ], [ -95.412695, 29.920732 ], [ -95.412695, 29.910732 ], [ -95.402695, 29.910732 ] ] ] } },
{ "type": "Feature", "properties": { "zone_id": "Z00005" }, "geometry": { "type": "Polygon", "coordinates": [ [ [ -95.402695, 29.920732 ], [ -95.402695, 29.930732 ], [ -95.412695, 29.930732 ], [ -95.412695, 29.920732 ], [ -95.402695, 29.920732 ] ] ] } },
{ "type": "Feature", "properties": { "zone_id": "Z00006" }, "geometry": { "type": "Polygon", "coordinates": [ [ [ -95.402695, 29.930732 ], [ -95.402695, 29.940732 ], [ -95.412695, 29.940732 ], [ -95.412695, 29.930732 ], [ -95.402695, 29.930732 ] ] ] } },
{ "type": "Feature", "properties": { "zone_id": "Z00007" }, "geometry": { "type": "Polygon", "coordinates": [ [ [ -95.402695, 29.940732 ], [ -95.402695, 29.950732 ], [ -95.412695, 29.950732 ], [ -95.412695, 29.940732 ], [ -95.402695, 29.940732 ] ] ] } },
{ "type": "Feature", "properties": { "zone_id": "Z00009" }, "geometry": { "type": "Polygon", "coordinates": [ [ [ -95.392695, 29.880732 ], [ -95.392695, 29.890732 ], [ -95.402695, 29.890732 ], [ -95.402695, 29.880732 ], [ -95.392695, 29.880732 ] ] ] } },
{ "type": "Feature", "properties": { "zone_id": "Z00010" }, "geometry": { "type": "Polygon", "coordinates": [ [ [ -95.392695, 29.890732 ], [ -95.392695, 29.900732 ], [ -95.402695, 29.900732 ], [ -95.402695, 29.890732 ], [ -95.392695, 29.890732 ] ] ] } },
{ "type": "Feature", "properties": { "zone_id": "Z00011" }, "geometry": { "type": "Polygon", "coordinates": [ [ [ -95.392695, 29.900732 ], [ -95.392695, 29.910732 ], [ -95.402695, 29.910732 ], [ -95.402695, 29.900732 ], [ -95.392695, 29.900732 ] ] ] } },
{ "type": "Feature", "properties": { "zone_id": "Z00012" }, "geometry": { "type": "Polygon", "coordinates": [ [ [ -95.392695, 29.910732 ], [ -95.392695, 29.920732 ], [ -95.402695, 29.920732 ], [ -95.402695, 29.910732 ], [ -95.392695, 29.910732 ] ] ] } },
{ "type": "Feature", "properties": { "zone_id": "Z00013" }, "geometry": { "type": "Polygon", "coordinates": [ [ [ -95.392695, 29.920732 ], [ -95.392695, 29.930732 ], [ -95.402695, 29.930732 ], [ -95.402695, 29.920732 ], [ -95.392695, 29.920732 ] ] ] } },
{ "type": "Feature", "properties": { "zone_id": "Z00014" }, "geometry": { "type": "Polygon", "coordinates": [ [ [ -95.392695, 29.930732 ], [ -95.392695, 29.940732 ], [ -95.402695, 29.940732 ], [ -95.402695, 29.930732 ], [ -95.392695, 29.930732 ] ] ] } },
{ "type": "Feature", "properties": { "zone_id": "Z00015" }, "geometry": { "type": "Polygon", "coordinates": [ [ [ -95.392695, 29.940732 ], [ -95.392695, 29.950732 ], [ -95.402695, 29.950732 ], [ -95.402695, 29.940732 ], [ -95.392695, 29.940732 ] ] ] } },
{ "type": "Feature", "properties": { "zone_id": "Z00017" }, "geometry": { "type": "Polygon", "coordinates": [ [ [ -95.382695, 29.880732 ], [ -95.382695, 29.890732 ], [ -95.392695, 29.890732 ], [ -95.392695, 29.880732 ], [ -95.382695, 29.880732 ] ] ] } },
{ "type": "Feature", "properties": { "zone_id": "Z00018" }, "geometry": { "type": "Polygon", "coordinates": [ [ [ -95.382695, 29.890732 ], [ -95.382695, 29.900732 ], [ -95.392695, 29.900732 ], [ -95.392695, 29.890732 ], [ -95.382695, 29.890732 ] ] ] } },
{ "type": "Feature", "properties": { "zone_id": "Z00019" }, "geometry": { "type": "Polygon", "coordinates": [ [ [ -95.382695, 29.900732 ], [ -95.382695, 29.910732 ], [ -95.392695, 29.910732 ], [ -95.392695, 29.900732 ], [ -95.382695, 29.900732 ] ] ] } },
{ "type": "Feature", "properties": { "zone_id": "Z00020" }, "geometry": { "type": "Polygon", "coordinates": [ [ [ -95.382695, 29.910732 ], [ -95.382695, 29.920732 ], [ -95.392695, 29.920732 ], [ -95.392695, 29.910732 ], [ -95.382695, 29.910732 ] ] ] } },
{ "type": "Feature", "properties": { "zone_id": "Z00021" }, "geometry": { "type": "Polygon", "coordinates": [ [ [ -95.382695, 29.920732 ], [ -95.382695, 29.930732 ], [ -95.392695, 29.930732 ], [ -95.392695, 29.920732 ], [ -95.382695, 29.920732 ] ] ] } },
{ "type": "Feature", "properties": { "zone_id": "Z00022" }, "geometry": { "type": "Polygon", "coordinates": [ [ [ -95.382695, 29.930732 ], [ -95.382695, 29.940732 ], [ -95.392695, 29.940732 ], [ -95.392695, 29.930732 ], [ -95.382695, 29.930732 ] ] ] } },
{ "type": "Feature", "properties": { "zone_id": "Z00023" }, "geometry": { "type": "Polygon", "coordinates": [ [ [ -95.382695, 29.940732 ], [ -95.382695, 29.950732 ], [ -95.392695, 29.950732 ], [ -95.392695, 29.940732 ], [ -95.382695, 29.940732 ] ] ] } },
{ "type": "Feature", "properties": { "zone_id": "Z00024" }, "geometry": { "type": "Polygon", "coordinates": [ [ [ -95.372695, 29.870732 ], [ -95.372695, 29.880732 ], [ -95.382695, 29.880732 ], [ -95.382695, 29.870732 ], [ -95.372695, 29.870732 ] ] ] } },
{ "type": "Feature", "properties": { "zone_id": "Z00025" }, "geometry": { "type": "Polygon", "coordinates": [ [ [ -95.372695, 29.880732 ], [ -95.372695, 29.890732 ], [ -95.382695, 29.890732 ], [ -95.382695, 29.880732 ], [ -95.372695, 29.880732 ] ] ] } },
{ "type": "Feature", "properties": { "zone_id": "Z00026" }, "geometry": { "type": "Polygon", "coordinates": [ [ [ -95.372695, 29.890732 ], [ -95.372695, 29.900732 ], [ -95.382695, 29.900732 ], [ -95.382695, 29.890732 ], [ -95.372695, 29.890732 ] ] ] } },
{ "type": "Feature", "properties": { "zone_id": "Z00027" }, "geometry": { "type": "Polygon", "coordinates": [ [ [ -95.372695, 29.900732 ], [ -95.372695, 29.910732 ], [ -95.382695, 29.910732 ], [ -95.382695, 29.900732 ], [ -95.372695, 29.900732 ] ] ] } },
{ "type": "Feature", "properties": { "zone_id": "Z00028" }, "geometry": { "type": "Polygon", "coordinates": [ [ [ -95.372695, 29.910732 ], [ -95.372695, 29.920732 ], [ -95.382695, 29.920732 ], [ -95.382695, 29.910732 ], [ -95.372695, 29.910732 ] ] ] } },
{ "type": "Feature", "properties": { "zone_id": "Z00029" }, "geometry": { "type": "Polygon", "coordinates": [ [ [ -95.372695, 29.920732 ], [ -95.372695, 29.930732 ], [ -95.382695, 29.930732 ], [ -95.382695, 29.920732 ], [ -95.372695, 29.920732 ] ] ] } },
{ "type": "Feature", "properties": { "zone_id": "Z00030" }, "geometry": { "type": "Polygon", "coordinates": [ [ [ -95.372695, 29.930732 ], [ -95.372695, 29.940732 ], [ -95.382695, 29.940732 ], [ -95.382695, 29.930732 ], [ -95.372695, 29.930732 ] ] ] } },
{ "type": "Feature", "properties": { "zone_id": "Z00031" }, "geometry": { "type": "Polygon", "coordinates": [ [ [ -95.372695, 29.940732 ], [ -95.372695, 29.950732 ], [ -95.382695, 29.950732 ], [ -95.382695, 29.940732 ], [ -95.372695, 29.940732 ] ] ] } },
{ "type": "Feature", "properties": { "zone_id": "Z00032" }, "geometry": { "type": "Polygon", "coordinates": [ [ [ -95.362695, 29.870732 ], [ -95.362695, 29.880732 ], [ -95.372695, 29.880732 ], [ -95.372695, 29.870732 ], [ -95.362695, 29.870732 ] ] ] } },
{ "type": "Feature", "properties": { "zone_id": "Z00033" }, "geometry": { "type": "Polygon", "coordinates": [ [ [ -95.362695, 29.880732 ], [ -95.362695, 29.890732 ], [ -95.372695, 29.890732 ], [ -95.372695, 29.880732 ], [ -95.362695, 29.880732 ] ] ] } },
{ "type": "Feature", "properties": { "zone_id": "Z00034" }, "geometry": { "type": "Polygon", "coordinates": [ [ [ -95.362695, 29.890732 ], [ -95.362695, 29.900732 ], [ -95.372695, 29.900732 ], [ -95.372695, 29.890732 ], [ -95.362695, 29.890732 ] ] ] } },
{ "type": "Feature", "properties": { "zone_id": "Z00035" }, "geometry": { "type": "Polygon", "coordinates": [ [ [ -95.362695, 29.900732 ], [ -95.362695, 29.910732 ], [ -95.372695, 29.910732 ], [ -95.372695, 29.900732 ], [ -95.362695, 29.900732 ] ] ] } },
{ "type": "Feature", "properties": { "zone_id": "Z00036" }, "geometry": { "type": "Polygon", "coordinates": [ [ [ -95.362695, 29.910732 ], [ -95.362695, 29.920732 ], [ -95.372695, 29.920732 ], [ -95.372695, 29.910732 ], [ -95.362695, 29.910732 ] ] ] } },
{ "type": "Feature", "properties": { "zone_id": "Z00037" }, "geometry": { "type": "Polygon", "coordinates": [ [ [ -95.362695, 29.920732 ], [ -95.362695, 29.930732 ], [ -95.372695, 29.930732 ], [ -95.372695, 29.920732 ], [ -95.362695, 29.920732 ] ] ] } },
{ "type": "Feature", "properties": { "zone_id": "Z00038" }, "geometry": { "type": "Polygon", "coordinates": [ [ [ -95.362695, 29.930732 ], [ -95.362695, 29.940732 ], [ -95.372695, 29.940732 ], [ -95.372695, 29.930732 ], [ -95.362695, 29.930732 ] ] ] } },
{ "type": "Feature", "properties": { "zone_id": "Z00039" }, "geometry": { "type": "Polygon", "coordinates": [ [ [ -95.362695, 29.940732 ], [ -95.362695, 29.950732 ], [ -95.372695, 29.950732 ], [ -95.372695, 29.940732 ], [ -95.362695, 29.940732 ] ] ] } },
{ "type": "Feature", "properties": { "zone_id": "Z00040" }, "geometry": { "type": "Polygon", "coordinates": [ [ [ -95.352695, 29.870732 ], [ -95.352695, 29.880732 ], [ -95.362695, 29.880732 ], [ -95.362695, 29.870732 ], [ -95.352695, 29.870732 ] ] ] } },
{ "type": "Feature", "properties": { "zone_id": "Z00041" }, "geometry": { "type": "Polygon", "coordinates": [ [ [ -95.352695, 29.880732 ], [ -95.352695, 29.890732 ], [ -95.362695, 29.890732 ], [ -95.362695, 29.880732 ], [ -95.352695, 29.880732 ] ] ] } },
{ "type": "Feature", "properties": { "zone_id": "Z00042" }, "geometry": { "type": "Polygon", "coordinates": [ [ [ -95.352695, 29.890732 ], [ -95.352695, 29.900732 ], [ -95.362695, 29.900732 ], [ -95.362695, 29.890732 ], [ -95.352695, 29.890732 ] ] ] } },
{ "type": "Feature", "properties": { "zone_id": "Z00043" }, "geometry": { "type": "Polygon", "coordinates": [ [ [ -95.352695, 29.900732 ], [ -95.352695, 29.910732 ], [ -95.362695, 29.910732 ], [ -95.362695, 29.900732 ], [ -95.352695, 29.900732 ] ] ] } },
{ "type": "Feature", "properties": { "zone_id": "Z00044" }, "geometry": { "type": "Polygon", "coordinates": [ [ [ -95.352695, 29.910732 ], [ -95.352695, 29.920732 ], [ -95.362695, 29.920732 ], [ -95.362695, 29.910732 ], [ -95.352695, 29.910732 ] ] ] } },
{ "type": "Feature", "properties": { "zone_id": "Z00045" }, "geometry": { "type": "Polygon", "coordinates": [ [ [ -95.352695, 29.920732 ], [ -95.352695, 29.930732 ], [ -95.362695, 29.930732 ], [ -95.362695, 29.920732 ], [ -95.352695, 29.920732 ] ] ] } },
{ "type": "Feature", "properties": { "zone_id": "Z00046" }, "geometry": { "type": "Polygon", "coordinates": [ [ [ -95.352695, 29.930732 ], [ -95.352695, 29.940732 ], [ -95.362695, 29.940732 ], [ -95.362695, 29.930732 ], [ -95.352695, 29.930732 ] ] ] } },
{ "type": "Feature", "properties": { "zone_id": "Z00048" }, "geometry": { "type": "Polygon", "coordinates": [ [ [ -95.342695, 29.870732 ], [ -95.342695, 29.880732 ], [ -95.352695, 29.880732 ], [ -95.352695, 29.870732 ], [ -95.342695, 29.870732 ] ] ] } },
{ "type": "Feature", "properties": { "zone_id": "Z00049" }, "geometry": { "type": "Polygon", "coordinates": [ [ [ -95.342695, 29.880732 ], [ -95.342695, 29.890732 ], [ -95.352695, 29.890732 ], [ -95.352695, 29.880732 ], [ -95.342695, 29.880732 ] ] ] } },
{ "type": "Feature", "properties": { "zone_id": "Z00050" }, "geometry": { "type": "Polygon", "coordinates": [ [ [ -95.342695, 29.890732 ], [ -95.342695, 29.900732 ], [ -95.352695, 29.900732 ], [ -95.352695, 29.890732 ], [ -95.342695, 29.890732 ] ] ] } },
{ "type": "Feature", "properties": { "zone_id": "Z00051" }, "geometry": { "type": "Polygon", "coordinates": [ [ [ -95.342695, 29.900732 ], [ -95.342695, 29.910732 ], [ -95.352695, 29.910732 ], [ -95.352695, 29.900732 ], [ -95.342695, 29.900732 ] ] ] } },
{ "type": "Feature", "properties": { "zone_id": "Z00052" }, "geometry": { "type": "Polygon", "coordinates": [ [ [ -95.342695, 29.910732 ], [ -95.342695, 29.920732 ], [ -95.352695, 29.920732 ], [ -95.352695, 29.910732 ], [ -95.342695, 29.910732 ] ] ] } },
{ "type": "Feature", "properties": { "zone_id": "Z00056" }, "geometry": { "type": "Polygon", "coordinates": [ [ [ -95.332695, 29.870732 ], [ -95.332695, 29.880732 ], [ -95.342695, 29.880732 ], [ -95.342695, 29.870732 ], [ -95.332695, 29.870732 ] ] ] } },
{ "type": "Feature", "properties": { "zone_id": "Z00057" }, "geometry": { "type": "Polygon", "coordinates": [ [ [ -95.332695, 29.880732 ], [ -95.332695, 29.890732 ], [ -95.342695, 29.890732 ], [ -95.342695, 29.880732 ], [ -95.332695, 29.880732 ] ] ] } }
]
}
